IRIDIUM 921 [-]         
1 24873U 97034E   24017.43917868  .00026688  00000+0  90994-3 0  9990
2 24873  86.3863   2.6406 0008306 101.2306 258.9877 15.30201459451914
IRIDIUM 26 [-]          
1 24903U 97043A   24017.38157997  .00000993  00000+0  33412-3 0  9990
2 24903  86.3983 327.4676 0002230  81.2124 278.9325 14.36164546382545
IRIDIUM 22 [-]          
1 24907U 97043E   24017.39002425  .00000913  00000+0  31370-3 0  9993
2 24907  86.3986 330.5796 0002222  87.2725 272.8726 14.35063989382630
DUMMY MASS 1 [-]        
1 24925U 97048A   24017.49002628  .00000849  00000+0  93981-4 0  9999
2 24925  86.3344  14.0530 0007369 158.0027 202.1515 14.86003114428371
DUMMY MASS 2 [-]        
1 24926U 97048B   24017.50207034  .00000829  00000+0  92271-4 0  9999
2 24926  86.3342  15.5633 0007657 169.9293 190.2086 14.85763316428169
IRIDIUM 29 [-]          
1 24944U 97051A   24017.44086725  .00000885  00000+0  30106-3 0  9998
2 24944  86.3969   0.4986 0002342  93.5136 266.6328 14.35522062379115
IRIDIUM 33 [-]          
1 24946U 97051C   24017.46780008  .00000663  00000+0  22969-3 0  9999
2 24946  86.3883 359.7521 0006947 339.7700  20.3219 14.34228228378663
IRIDIUM 28 [-]          
1 24948U 97051E   24017.47528891  .00000905  00000+0  30233-3 0  9994
2 24948  86.3975 358.2976 0002122  77.1642 282.9792 14.36461829379643
